stk.v.6.0

BEGIN Ephemeris

NumberOfEphemerisPoints 11

ScenarioEpoch           1 Nov 2000 00:00:00.000

InterpolationMethod     Lagrange

InterpolationSamplesM1      5

CentralBody             Earth

CoordinateSystem        J2000 

EphemerisTimePosVel

1.71000000000000e+004 2.47589000000000e+006 5.59092100000000e+006 -5.19386500000000e+006 -1.77346000000000e+002 4.37608900000000e+003 5.37932700000000e+003
1.71600000000000e+004 2.46189000000000e+006 5.84529800000000e+006 -4.86431800000000e+006 -2.92191400000000e+002 4.10997100000000e+003 5.61337400000000e+003
1.72200000000000e+004 2.44099300000000e+006 6.08328400000000e+006 -4.52113200000000e+006 -4.07521000000000e+002 3.82925100000000e+003 5.83424000000000e+003
1.72800000000000e+004 2.41317900000000e+006 6.30401500000000e+006 -4.16512200000000e+006 -5.23037600000000e+002 3.53434400000000e+003 6.04103100000000e+003
1.73400000000000e+004 2.37844500000000e+006 6.50665500000000e+006 -3.79716000000000e+006 -6.38428900000000e+002 3.22572300000000e+003 6.23284500000000e+003
1.74000000000000e+004 2.33680800000000e+006 6.69039800000000e+006 -3.41817100000000e+006 -7.53367200000000e+002 2.90392500000000e+003 6.40878000000000e+003
1.74600000000000e+004 2.28830500000000e+006 6.85447200000000e+006 -3.02913300000000e+006 -8.67509600000000e+002 2.56955400000000e+003 6.56793500000000e+003
1.75200000000000e+004 2.23299500000000e+006 6.99814200000000e+006 -2.63107800000000e+006 -9.80498200000000e+002 2.22328200000000e+003 6.70941700000000e+003
1.75800000000000e+004 2.17095700000000e+006 7.12071700000000e+006 -2.22509400000000e+006 -1.09196000000000e+003 1.86586000000000e+003 6.83234600000000e+003
1.76400000000000e+004 2.10229400000000e+006 7.22155400000000e+006 -1.81231700000000e+006 -1.20150900000000e+003 1.49811500000000e+003 6.93586200000000e+003
1.77000000000000e+004 2.02713200000000e+006 7.30006000000000e+006 -1.39393700000000e+006 -1.30874500000000e+003 1.12095400000000e+003 7.01912800000000e+003


END Ephemeris
